CAS500-2 RIDESHARE OBJE*
1 68993U 26100P   26129.70604727  .00001091  00000+0  11470-3 0  9993
2 68993  97.7406  27.8738 0001301 263.1685  96.9385 14.91447795   967
