{
  "norad_id": 68993,
  "name": "CAS500-2 RIDESHARE OBJECT P",
  "history": [
    {
      "epoch": "2026-05-09T16:56:42.484128Z",
      "apogee_km": 594.3273396058894,
      "perigee_km": 592.5133403860227,
      "latitude_deg": -5.746139193773148e-05,
      "longitude_deg": -93.82298777171218,
      "height_km": 596.5718586422373,
      "semi_major_axis_km": 6971.557339995956,
      "eccentricity": 0.0001301,
      "inclination_deg": 97.7406,
      "raan_deg": 27.8738,
      "arg_perigee_deg": 263.1685,
      "mean_anomaly_deg": 96.9385,
      "mean_motion_rev_day": 14.91447795
    }
  ]
}